{
  "norad_id": 68979,
  "name": "STARLINK-36248",
  "history": [
    {
      "epoch": "2026-05-12T20:00:01.999008Z",
      "apogee_km": 328.7417776735938,
      "perigee_km": 327.279837451546,
      "latitude_deg": 53.1636928082365,
      "longitude_deg": -115.09861975161436,
      "height_km": 333.8366651017817,
      "semi_major_axis_km": 6706.14780756257,
      "eccentricity": 0.000109,
      "inclination_deg": 53.159,
      "raan_deg": 331.5033,
      "arg_perigee_deg": 67.0132,
      "mean_anomaly_deg": 19.386,
      "mean_motion_rev_day": 15.80858796
    }
  ]
}