STARLINK-36248          
1 68979U 26099AE  26132.83335648  .00010067  00000+0  54519-4 0  9990
2 68979  53.1590 331.5033 0001089  67.0132  19.3860 15.80858796  3039
